{"type": "FeatureCollection", "features": [ {"type": "Feature", "properties": {"norad_id": 17070, "name": "POLAR BEAR", "group": "nnss", "lat": -34.26276474726136, "lon": -176.35016220253448, "alt_km": 1015.7497808128728, "timestamp": "2025-12-09T07:41:33.476610+00:00", "meta": {"OBJECT_NAME": "POLAR BEAR", "OBJECT_ID": "1986-088A", "EPOCH": "2025-12-08T23:42:53.743392", "MEAN_MOTION": 13.75249626, "ECCENTRICITY": 0.00407403, "INCLINATION": 89.6177, "RA_OF_ASC_NODE": 183.9238, "ARG_OF_PERICENTER": 130.1274, "MEAN_ANOMALY": 351.1481, "EPHEMERIS_TYPE": 0, "CLASSIFICATION_TYPE": "U", "NORAD_CAT_ID": 17070, "ELEMENT_SET_NO": 999, "REV_AT_EPOCH": 95927, "BSTAR": 0.0001424152, "MEAN_MOTION_DOT": 1.49e-06, "MEAN_MOTION_DDOT": 0}, "tle": {"line1": "1 17070U 86088A   25342.98812203  .00000149  00000+0  14242-3 0  9993", "line2": "2 17070  89.6177 183.9238 0040740 130.1274 351.1481 13.75249626959272"}}, "geometry": {"type": "Point", "coordinates": [-176.35016220253448, -34.26276474726136]}}, {"type": "Feature", "properties": {"norad_id": 18361, "name": "OSCAR 27", "group": "nnss", "lat": -56.528040164378076, "lon": -101.42198230714675, "alt_km": 1021.6099801198025, "timestamp": "2025-12-09T07:41:33.476630+00:00", "meta": {"OBJECT_NAME": "OSCAR 27", "OBJECT_ID": "1987-080A", "EPOCH": "2025-12-08T19:48:08.783424", "MEAN_MOTION": 13.44905625, "ECCENTRICITY": 0.01026386, "INCLINATION": 90.3742, "RA_OF_ASC_NODE": 79.1258, "ARG_OF_PERICENTER": 235.1417, "MEAN_ANOMALY": 124.0048, "EPHEMERIS_TYPE": 0, "CLASSIFICATION_TYPE": "U", "NORAD_CAT_ID": 18361, "ELEMENT_SET_NO": 999, "REV_AT_EPOCH": 87504, "BSTAR": 0.0003214454, "MEAN_MOTION_DOT": 2.02e-06, "MEAN_MOTION_DDOT": 0}, "tle": {"line1": "1 18361U 87080A   25342.82510166  .00000202  00000+0  32145-3 0  9998", "line2": "2 18361  90.3742  79.1258 0102638 235.1417 124.0048 13.44905625875043"}}, "geometry": {"type": "Point", "coordinates": [-101.42198230714675, -56.528040164378076]}}, {"type": "Feature", "properties": {"norad_id": 18362, "name": "OSCAR 29", "group": "nnss", "lat": -74.20171040886675, "lon": -101.72470222976007, "alt_km": 1022.7442245131278, "timestamp": "2025-12-09T07:41:33.476653+00:00", "meta": {"OBJECT_NAME": "OSCAR 29", "OBJECT_ID": "1987-080B", "EPOCH": "2025-12-08T20:17:27.476160", "MEAN_MOTION": 13.44447461, "ECCENTRICITY": 0.01037656, "INCLINATION": 90.3754, "RA_OF_ASC_NODE": 79.5852, "ARG_OF_PERICENTER": 258.4854, "MEAN_ANOMALY": 217.7657, "EPHEMERIS_TYPE": 0, "CLASSIFICATION_TYPE": "U", "NORAD_CAT_ID": 18362, "ELEMENT_SET_NO": 999, "REV_AT_EPOCH": 87457, "BSTAR": 0.00028903872, "MEAN_MOTION_DOT": 1.81e-06, "MEAN_MOTION_DDOT": 0}, "tle": {"line1": "1 18362U 87080B   25342.84545690  .00000181  00000+0  28904-3 0  9995", "line2": "2 18362  90.3754  79.5852 0103765 258.4854 217.7657 13.44447461874578"}}, "geometry": {"type": "Point", "coordinates": [-101.72470222976007, -74.20171040886675]}}, {"type": "Feature", "properties": {"norad_id": 19070, "name": "OSCAR 23", "group": "nnss", "lat": -56.03314279117811, "lon": -164.19077690223736, "alt_km": 1062.7658821630248, "timestamp": "2025-12-09T07:41:33.476670+00:00", "meta": {"OBJECT_NAME": "OSCAR 23", "OBJECT_ID": "1988-033A", "EPOCH": "2025-12-08T16:39:12.267936", "MEAN_MOTION": 13.27786374, "ECCENTRICITY": 0.01891831, "INCLINATION": 90.3215, "RA_OF_ASC_NODE": 16.2672, "ARG_OF_PERICENTER": 191.1838, "MEAN_ANOMALY": 289.6353, "EPHEMERIS_TYPE": 0, "CLASSIFICATION_TYPE": "U", "NORAD_CAT_ID": 19070, "ELEMENT_SET_NO": 999, "REV_AT_EPOCH": 82199, "BSTAR": 0.00021889934, "MEAN_MOTION_DOT": 1.17e-06, "MEAN_MOTION_DDOT": 0}, "tle": {"line1": "1 19070U 88033A   25342.69389199  .00000117  00000+0  21890-3 0  9990", "line2": "2 19070  90.3215  16.2672 0189183 191.1838 289.6353 13.27786374821997"}}, "geometry": {"type": "Point", "coordinates": [-164.19077690223736, -56.03314279117811]}}, {"type": "Feature", "properties": {"norad_id": 19071, "name": "OSCAR 32", "group": "nnss", "lat": -16.94532287108465, "lon": 16.516735720734417, "alt_km": 1297.1778575907247, "timestamp": "2025-12-09T07:41:33.476681+00:00", "meta": {"OBJECT_NAME": "OSCAR 32", "OBJECT_ID": "1988-033B", "EPOCH": "2025-12-08T19:59:46.320864", "MEAN_MOTION": 13.27953304, "ECCENTRICITY": 0.01880369, "INCLINATION": 90.3221, "RA_OF_ASC_NODE": 16.4033, "ARG_OF_PERICENTER": 177.6421, "MEAN_ANOMALY": 356.5363, "EPHEMERIS_TYPE": 0, "CLASSIFICATION_TYPE": "U", "NORAD_CAT_ID": 19071, "ELEMENT_SET_NO": 999, "REV_AT_EPOCH": 82213, "BSTAR": 0.00020453437, "MEAN_MOTION_DOT": 1.1e-06, "MEAN_MOTION_DDOT": 0}, "tle": {"line1": "1 19071U 88033B   25342.83317501  .00000110  00000+0  20453-3 0  9992", "line2": "2 19071  90.3221  16.4033 0188036 177.6421 356.5363 13.27953304822132"}}, "geometry": {"type": "Point", "coordinates": [16.516735720734417, -16.94532287108465]}}, {"type": "Feature", "properties": {"norad_id": 19223, "name": "NOVA 2", "group": "nnss", "lat": -61.43135591476784, "lon": -101.6995881846004, "alt_km": 1199.8169972241512, "timestamp": "2025-12-09T07:41:33.476692+00:00", "meta": {"OBJECT_NAME": "NOVA 2", "OBJECT_ID": "1988-052A", "EPOCH": "2025-12-09T00:05:15.803232", "MEAN_MOTION": 13.22935258, "ECCENTRICITY": 0.00309009, "INCLINATION": 89.9871, "RA_OF_ASC_NODE": 78.2771, "ARG_OF_PERICENTER": 27.0422, "MEAN_ANOMALY": 146.288, "EPHEMERIS_TYPE": 0, "CLASSIFICATION_TYPE": "U", "NORAD_CAT_ID": 19223, "ELEMENT_SET_NO": 999, "REV_AT_EPOCH": 80898, "BSTAR": 0.00022123431, "MEAN_MOTION_DOT": 1.02e-06, "MEAN_MOTION_DDOT": 0}, "tle": {"line1": "1 19223U 88052A   25343.00365513  .00000102  00000+0  22123-3 0  9995", "line2": "2 19223  89.9871  78.2771 0030900  27.0422 146.2880 13.22935258808984"}}, "geometry": {"type": "Point", "coordinates": [-101.6995881846004, -61.43135591476784]}}, {"type": "Feature", "properties": {"norad_id": 19419, "name": "OSCAR 25", "group": "nnss", "lat": 75.74395625531415, "lon": 20.095542256064338, "alt_km": 1162.9901487102989, "timestamp": "2025-12-09T07:41:33.476703+00:00", "meta": {"OBJECT_NAME": "OSCAR 25", "OBJECT_ID": "1988-074A", "EPOCH": "2025-12-08T21:27:14.131584", "MEAN_MOTION": 13.42622264, "ECCENTRICITY": 0.00943083, "INCLINATION": 90.0349, "RA_OF_ASC_NODE": 20.2315, "ARG_OF_PERICENTER": 257.0069, "MEAN_ANOMALY": 277.9723, "EPHEMERIS_TYPE": 0, "CLASSIFICATION_TYPE": "U", "NORAD_CAT_ID": 19419, "ELEMENT_SET_NO": 999, "REV_AT_EPOCH": 82588, "BSTAR": 0.00023301724, "MEAN_MOTION_DOT": 1.44e-06, "MEAN_MOTION_DDOT": 0}, "tle": {"line1": "1 19419U 88074A   25342.89391356  .00000144  00000+0  23302-3 0  9992", "line2": "2 19419  90.0349  20.2315 0094308 257.0069 277.9723 13.42622264825887"}}, "geometry": {"type": "Point", "coordinates": [20.095542256064338, 75.74395625531415]}}, {"type": "Feature", "properties": {"norad_id": 19420, "name": "OSCAR 31", "group": "nnss", "lat": -39.077703292122514, "lon": 20.612261897000398, "alt_km": 1083.1835419136005, "timestamp": "2025-12-09T07:41:33.476717+00:00", "meta": {"OBJECT_NAME": "OSCAR 31", "OBJECT_ID": "1988-074B", "EPOCH": "2025-12-08T20:14:32.045280", "MEAN_MOTION": 13.42583793, "ECCENTRICITY": 0.00925808, "INCLINATION": 90.0367, "RA_OF_ASC_NODE": 20.5807, "ARG_OF_PERICENTER": 251.2576, "MEAN_ANOMALY": 284.1517, "EPHEMERIS_TYPE": 0, "CLASSIFICATION_TYPE": "U", "NORAD_CAT_ID": 19420, "ELEMENT_SET_NO": 999, "REV_AT_EPOCH": 82598, "BSTAR": 0.00022566756, "MEAN_MOTION_DOT": 1.39e-06, "MEAN_MOTION_DDOT": 0}, "tle": {"line1": "1 19420U 88074B   25342.84342645  .00000139  00000+0  22567-3 0  9992", "line2": "2 19420  90.0367  20.5807 0092580 251.2576 284.1517 13.42583793825982"}}, "geometry": {"type": "Point", "coordinates": [20.612261897000398, -39.077703292122514]}}]}